HAWK-11B                
1 62379U 24247C   26068.44730104  .00009093  00000+0  32842-3 0  9993
2 62379  45.0161 115.7610 0004690 333.0326  27.0314 15.28847070 67738
STARLINK-32792          
1 62504U 25003T   26068.01709129  .00034798  00000+0  12676-2 0  9992
2 62504  43.0047 292.3353 0002838 267.8512  92.2014 15.27590551 66455
